UNKNOWN                 
1 85010U          26076.42716587  .00000982  00000+0  10655-2 0  9992
2 85010  99.2461 300.4448 0026889   5.2422 118.1978 13.75282620616934
UNKNOWN                 
1 85015U          26086.57720363  .00000489  00000+0  10243-3 0  9997
2 85015  74.0503 197.5582 0013885  75.5520 284.7187 14.62438477657939
UNKNOWN                 
1 85023U          26089.60861030  .00038828  00000+0  49414-2 0  9999
2 85023  99.8386 133.8463 0000946 161.6150 349.7192 14.81433718644762
UNKNOWN                 
1 85027U          26088.99420334  .00000152  00000+0  22033-3 0  9990
2 85027  66.0415 198.8603 0168767 132.7554 228.7853 13.74295217619353
UNKNOWN                 
1 85047U          26089.43224455  .00013874  00000+0  21822-1 0  9996
2 85047 102.1660  82.5138 0123349 131.3085 229.8733 13.47169570591149
UNKNOWN                 
1 85061U          26087.48402843  .00003645  00000+0  14429-1 0  9994
2 85061 102.4053  86.0238 0266877 344.9615 169.6602 12.77828797569280
UNKNOWN                 
1 85100U          26086.59301337  .00000328  00000+0  11068-3 0  9998
2 85100  74.0475  28.9206 0013594 233.9710 305.6757 14.40809886648444
UNKNOWN                 
1 85106U          26087.57624000  .00000617  00000+0  71988-3 0  9996
2 85106 100.0548 198.6429 0010643 105.7026 271.6882 13.73057649617591
UNKNOWN                 
1 85151U          26088.09036950  .00022537  00000+0  27046-2 0  9995
2 85151  98.3983 322.2405 0007484 148.5148 211.6514 14.84004837495270
UNKNOWN                 
1 85210U          26089.66582507  .00000381  00000+0  40182-3 0  9999
2 85210  99.8647 238.6418 0215337  38.4279 340.3417 13.71686105616954
UNKNOWN                 
1 85217U          26089.47559054  .00005000  00000+0  13044-2 0  9995
2 85217  98.0220 181.8327 0207485 162.3698 198.4834 14.37794213643334
UNKNOWN                 
1 85237U          26084.59589313  .00003420  00000+0  69292-3 0  9997
2 85237  65.5328 304.6752 0516473 340.8747  17.3543 14.02416885622767
